[{"OBJECT_NAME":"STARLINK-31704","OBJECT_ID":"2024-076Y","EPOCH":"2026-03-09T22:00:01.999584","MEAN_MOTION":15.30892355,"ECCENTRICITY":0.00079744,"INCLINATION":42.9978,"RA_OF_ASC_NODE":323.2923,"ARG_OF_PERICENTER":240.5046,"MEAN_ANOMALY":200.4144,"EPHEMERIS_TYPE":0,"CLASSIFICATION_TYPE":"U","NORAD_CAT_ID":59586,"ELEMENT_SET_NO":999,"REV_AT_EPOCH":581,"BSTAR":0.0024766131,"MEAN_MOTION_DOT":0.00076042,"MEAN_MOTION_DDOT":0},{"OBJECT_NAME":"STARLINK-35074","OBJECT_ID":"2025-192U","EPOCH":"2026-03-09T21:16:46.062336","MEAN_MOTION":15.30210364,"ECCENTRICITY":7.971e-5,"INCLINATION":53.1588,"RA_OF_ASC_NODE":231.4828,"ARG_OF_PERICENTER":59.4601,"MEAN_ANOMALY":300.6479,"EPHEMERIS_TYPE":0,"CLASSIFICATION_TYPE":"U","NORAD_CAT_ID":65422,"ELEMENT_SET_NO":999,"REV_AT_EPOCH":2941,"BSTAR":0.0010780898,"MEAN_MOTION_DOT":0.00031717,"MEAN_MOTION_DDOT":0}]
